ONEWEB-0603             
1 54667U 22166AB  23328.77507109  .00000079  00000+0  15934-3 0  9999
2 54667  87.9255  70.1882 0001994  87.4274 272.7088 13.21825890 47900
ONEWEB-0604             
1 54668U 22166AC  23328.83815370 -.00000008  00000+0 -50243-4 0  9996
2 54668  87.9249  70.1706 0001794  83.6169 276.5169 13.21824436 47871
ONEWEB-0605             
1 54669U 22166AD  23328.83185432  .00000006  00000+0 -18119-4 0  9999
2 54669  87.9264  70.2012 0002373  93.7962 266.3443 13.21825549 47943
ONEWEB-0606             
1 54670U 22166AE  23328.85391763 -.00000019  00000+0 -77971-4 0  9995
2 54670  87.9254  70.1803 0001633 110.7748 249.3561 13.21826203 48469
ONEWEB-0607             
1 54671U 22166AF  23328.82079550 -.00000088  00000+0 -24361-3 0  9990
2 54671  87.9246  70.1734 0001915  95.1003 265.0349 13.21828572 47972
ONEWEB-0608             
1 54672U 22166AG  23328.82710192  .00000027  00000+0  33854-4 0  9994
2 54672  87.9256  70.1795 0002314  92.3685 267.7713 13.21823820 47986
ONEWEB-0610             
1 54673U 22166AH  23328.80817968 -.00000045  00000+0 -14161-3 0  9993
2 54673  87.9260  70.1842 0002171  92.7470 267.3913 13.21823342 47888
ONEWEB-0611             
1 54674U 22166AJ  23328.80186270  .00000014  00000+0  14631-5 0  9997
2 54674  87.9256  70.1864 0001306 113.3282 246.7990 13.21828208 47879
